{"type":"FeatureCollection","properties":{"provenance":{"datasets":["Stromanlagen (OGD)","Stromnetzgebiete (OGD)"],"source_urls":["https://data.stadt-zuerich.ch/dataset/ktzh_stromanlagen__ogd_","https://data.stadt-zuerich.ch/dataset/ktzh_stromnetzgebiete__ogd_"],"licence":"CC0","source_update_date":"2026-09-04","prepared_at":"2026-09-04T00:00:00+02:00","source_crs":"EPSG:4326","analysis_crs":"EPSG:2056","clipping_rule":"Point assets within 2 km; >=50 kV lines intersecting the 2 km buffer, clipped and 25 m simplified."},"operator_territory":{"point_a":"Elektrizitätswerke des Kantons Zürich (EKZ)","point_b":"Elektrizitätswerke des Kantons Zürich (EKZ)"},"disclaimer":"Published network context only. Capacity and connection availability require confirmation from the network operator.","feature_counts":{"point_assets":3,"line_features":21,"underground_cables":9,"overhead_lines":12}},"features":[
{"type":"Feature","properties":{"kind":"Wasserkraftwerk","name":"Limmatkraftwerk Dietikon","owner":"EKZ","status":"bestehend","voltage_kv":[110,16],"installation":null,"official_id":41},"geometry":{"type":"Point","coordinates":[8.408824,47.409898]}},
{"type":"Feature","properties":{"kind":"Unterwerk","name":"UW Schlieren","owner":"Axpo Grid AG","status":"bestehend","voltage_kv":[110,16],"installation":null,"official_id":45},"geometry":{"type":"Point","coordinates":[8.433776,47.401062]}},
{"type":"Feature","properties":{"kind":"Unterwerk","name":"UW Dietikon","owner":"Axpo Grid AG","status":"bestehend","voltage_kv":[110,16],"installation":null,"official_id":95},"geometry":{"type":"Point","coordinates":[8.408002,47.411912]}},
{"type":"Feature","properties":{"kind":"published 110 kV line context","name":"Kabelleitung","owner":"Axpo Grid AG","status":"inBetrieb","voltage_kv":[110],"installation":"Kabelleitung","source_feature_count":9,"official_ids":[865,994,1147,1160,1176,1215,1238,1324,1567]},"geometry":{"type":"MultiLineString","coordinates":[[[8.434711,47.410162],[8.444666,47.410152]],[[8.432544,47.37838],[8.43058,47.380896],[8.429545,47.383519],[8.429804,47.386088],[8.431016,47.388428],[8.432283,47.38965],[8.431044,47.39015],[8.430824,47.390897]],[[8.408042,47.412199],[8.408046,47.41203]],[[8.428917,47.395457],[8.429578,47.3957],[8.429644,47.397168],[8.430399,47.397262],[8.430785,47.398408],[8.433168,47.399047],[8.432452,47.399843],[8.433513,47.400786]],[[8.444666,47.410152],[8.445804,47.410261]],[[8.448521,47.401147],[8.448009,47.401511],[8.439555,47.401196],[8.439069,47.402124],[8.438058,47.402197],[8.436879,47.402099],[8.434314,47.400831],[8.433392,47.400913]],[[8.408052,47.41202],[8.407952,47.41233]],[[8.430824,47.390897],[8.430152,47.392532],[8.428941,47.392456],[8.428242,47.393918],[8.429027,47.394686],[8.428917,47.395457]],[[8.434225,47.410901],[8.438064,47.410553],[8.445532,47.410653]]]}},
{"type":"Feature","properties":{"kind":"published 110 kV line context","name":"Freileitung","owner":"Axpo Grid AG","status":"inBetrieb","voltage_kv":[110],"installation":"Freileitung","source_feature_count":12,"official_ids":[39,43,71,83,97,215,457,937,1073,1146,1312,1408]},"geometry":{"type":"MultiLineString","coordinates":[[[8.418955,47.416136],[8.427001,47.412456],[8.431571,47.411168],[8.43427,47.410903]],[[8.408291,47.420435],[8.414105,47.418416],[8.418955,47.416136]],[[8.439787,47.415664],[8.438194,47.414774],[8.436213,47.412883]],[[8.408737,47.41335],[8.406448,47.417197],[8.403807,47.420378]],[[8.433669,47.410292],[8.431784,47.408374],[8.431104,47.405451],[8.433429,47.400886]],[[8.43427,47.410903],[8.433669,47.410292]],[[8.436213,47.412883],[8.43427,47.410903]],[[8.433194,47.377238],[8.432544,47.37838]],[[8.433669,47.410291],[8.434711,47.410162]],[[8.408042,47.412199],[8.408737,47.41335]],[[8.433485,47.375395],[8.433194,47.377238]],[[8.407952,47.41233],[8.408737,47.41335]]]} }
]}
